{
  "type": "FeatureCollection",
  "features": [
    {
      "type": "Feature",
      "properties": {
        "norad_id": 24946,
        "name": "IRIDIUM 33",
        "group": "iridium-33-debris",
        "lat": -33.985954004994255,
        "lon": 64.88974790020518,
        "alt_km": 784.7329431328308,
        "timestamp": "2025-12-14T20:40:32.157227+00:00",
        "meta_object_name": "IRIDIUM 33",
        "meta_object_id": "1997-051C",
        "meta_epoch": "2025-12-14T07:26:46.689504",
        "meta_mean_motion": 14.35038871,
        "meta_eccentricity": 0.00072163,
        "meta_inclination": 86.3869,
        "meta_ra_of_asc_node": 67.5624,
        "meta_arg_of_pericenter": 194.7886,
        "meta_mean_anomaly": 165.31,
        "meta_ephemeris_type": 0,
        "meta_classification_type": "U",
        "meta_norad_cat_id": 24946,
        "meta_element_set_no": 999,
        "meta_rev_at_epoch": 47857,
        "meta_bstar": 0.00015403884,
        "meta_mean_motion_dot": 4.58e-06,
        "meta_mean_motion_ddot": 0,
        "tle_line1": "1 24946U 97051C   25348.31026261  .00000458  00000+0  15404-3 0  9993",
        "tle_line2": "2 24946  86.3869  67.5624 0007216 194.7886 165.3100 14.35038871478573"
      },
      "geometry": {
        "type": "Point",
        "coordinates": [
          64.88974790020518,
          -33.985954004994255
        ]
      }
    },
    {
      "type": "Feature",
      "properties": {
        "norad_id": 33773,
        "name": "IRIDIUM 33 DEB",
        "group": "iridium-33-debris",
        "lat": -14.467884668195188,
        "lon": 58.7599579014263,
        "alt_km": 760.5636160556141,
        "timestamp": "2025-12-14T20:40:32.157272+00:00",
        "meta_object_name": "IRIDIUM 33 DEB",
        "meta_object_id": "1997-051L",
        "meta_epoch": "2025-12-14T04:06:11.263680",
        "meta_mean_motion": 14.43261073,
        "meta_eccentricity": 0.00125943,
        "meta_inclination": 86.4009,
        "meta_ra_of_asc_node": 59.983,
        "meta_arg_of_pericenter": 142.1919,
        "meta_mean_anomaly": 218.0169,
        "meta_ephemeris_type": 0,
        "meta_classification_type": "U",
        "meta_norad_cat_id": 33773,
        "meta_element_set_no": 999,
        "meta_rev_at_epoch": 88368,
        "meta_bstar": 0.00041825847,
        "meta_mean_motion_dot": 1.428e-05,
        "meta_mean_motion_ddot": 0,
        "tle_line1": "1 33773U 97051L   25348.17096370  .00001428  00000+0  41826-3 0  9998",
        "tle_line2": "2 33773  86.4009  59.9830 0012594 142.1919 218.0169 14.43261073883685"
      },
      "geometry": {
        "type": "Point",
        "coordinates": [
          58.7599579014263,
          -14.467884668195188
        ]
      }
    },
    {
      "type": "Feature",
      "properties": {
        "norad_id": 33775,
        "name": "IRIDIUM 33 DEB",
        "group": "iridium-33-debris",
        "lat": 55.1556474637552,
        "lon": 53.88906784630149,
        "alt_km": 748.9296180008105,
        "timestamp": "2025-12-14T20:40:32.157288+00:00",
        "meta_object_name": "IRIDIUM 33 DEB",
        "meta_object_id": "1997-051N",
        "meta_epoch": "2025-12-14T05:43:05.871360",
        "meta_mean_motion": 14.41472464,
        "meta_eccentricity": 0.00144472,
        "meta_inclination": 86.3637,
        "meta_ra_of_asc_node": 48.914,
        "meta_arg_of_pericenter": 150.0431,
        "meta_mean_anomaly": 273.4813,
        "meta_ephemeris_type": 0,
        "meta_classification_type": "U",
        "meta_norad_cat_id": 33775,
        "meta_element_set_no": 999,
        "meta_rev_at_epoch": 88162,
        "meta_bstar": 0.00042118619,
        "meta_mean_motion_dot": 1.387e-05,
        "meta_mean_motion_ddot": 0,
        "tle_line1": "1 33775U 97051N   25348.23826240  .00001387  00000+0  42119-3 0  9994",
        "tle_line2": "2 33775  86.3637  48.9140 0014447 150.0431 273.4813 14.41472464881620"
      },
      "geometry": {
        "type": "Point",
        "coordinates": [
          53.88906784630149,
          55.1556474637552
        ]
      }
    },
    {
      "type": "Feature",
      "properties": {
        "norad_id": 33776,
        "name": "IRIDIUM 33 DEB",
        "group": "iridium-33-debris",
        "lat": -80.08491966932232,
        "lon": -79.02792214948049,
        "alt_km": 769.4786774896093,
        "timestamp": "2025-12-14T20:40:32.157302+00:00",
        "meta_object_name": "IRIDIUM 33 DEB",
        "meta_object_id": "1997-051P",
        "meta_epoch": "2025-12-14T08:06:29.551392",
        "meta_mean_motion": 14.38238638,
        "meta_eccentricity": 0.00145328,
        "meta_inclination": 86.4037,
        "meta_ra_of_asc_node": 80.1048,
        "meta_arg_of_pericenter": 185.0818,
        "meta_mean_anomaly": 245.9724,
        "meta_ephemeris_type": 0,
        "meta_classification_type": "U",
        "meta_norad_cat_id": 33776,
        "meta_element_set_no": 999,
        "meta_rev_at_epoch": 88105,
        "meta_bstar": 0.00037826952,
        "meta_mean_motion_dot": 1.17e-05,
        "meta_mean_motion_ddot": 0,
        "tle_line1": "1 33776U 97051P   25348.33784203  .00001170  00000+0  37827-3 0  9998",
        "tle_line2": "2 33776  86.4037  80.1048 0014532 185.0818 245.9724 14.38238638881054"
      },
      "geometry": {
        "type": "Point",
        "coordinates": [
          -79.02792214948049,
          -80.08491966932232
        ]
      }
    },
    {
      "type": "Feature",
      "properties": {
        "norad_id": 33777,
        "name": "IRIDIUM 33 DEB",
        "group": "iridium-33-debris",
        "lat": -0.9562389148423923,
        "lon": -145.65875321819553,
        "alt_km": 708.5965585646345,
        "timestamp": "2025-12-14T20:40:32.157315+00:00",
        "meta_object_name": "IRIDIUM 33 DEB",
        "meta_object_id": "1997-051Q",
        "meta_epoch": "2025-12-14T04:59:54.392352",
        "meta_mean_motion": 14.55629997,
        "meta_eccentricity": 0.00052546,
        "meta_inclination": 86.3789,
        "meta_ra_of_asc_node": 34.5647,
        "meta_arg_of_pericenter": 242.2045,
        "meta_mean_anomaly": 117.863,
        "meta_ephemeris_type": 0,
        "meta_classification_type": "U",
        "meta_norad_cat_id": 33777,
        "meta_element_set_no": 999,
        "meta_rev_at_epoch": 88555,
        "meta_bstar": 0.00096953555,
        "meta_mean_motion_dot": 4.251e-05,
        "meta_mean_motion_ddot": 0,
        "tle_line1": "1 33777U 97051Q   25348.20826843  .00004251  00000+0  96954-3 0  9991",
        "tle_line2": "2 33777  86.3789  34.5647 0005254 242.2045 117.8630 14.55629997885558"
      },
      "geometry": {
        "type": "Point",
        "coordinates": [
          -145.65875321819553,
          -0.9562389148423923
        ]
      }
    },
    {
      "type": "Feature",
      "properties": {
        "norad_id": 33850,
        "name": "IRIDIUM 33 DEB",
        "group": "iridium-33-debris",
        "lat": 41.30223049882943,
        "lon": 32.489852778877015,
        "alt_km": 751.6015396384282,
        "timestamp": "2025-12-14T20:40:32.157327+00:00",
        "meta_object_name": "IRIDIUM 33 DEB",
        "meta_object_id": "1997-051T",
        "meta_epoch": "2025-12-14T04:06:40.466880",
        "meta_mean_motion": 14.4214965,
        "meta_eccentricity": 0.00123805,
        "meta_inclination": 86.3417,
        "meta_ra_of_asc_node": 29.5642,
        "meta_arg_of_pericenter": 156.6398,
        "meta_mean_anomaly": 264.0152,
        "meta_ephemeris_type": 0,
        "meta_classification_type": "U",
        "meta_norad_cat_id": 33850,
        "meta_element_set_no": 999,
        "meta_rev_at_epoch": 88173,
        "meta_bstar": 0.00038907266,
        "meta_mean_motion_dot": 1.3e-05,
        "meta_mean_motion_ddot": 0,
        "tle_line1": "1 33850U 97051T   25348.17130170  .00001300  00000+0  38907-3 0  9996",
        "tle_line2": "2 33850  86.3417  29.5642 0012380 156.6398 264.0152 14.42149650881733"
      },
      "geometry": {
        "type": "Point",
        "coordinates": [
          32.489852778877015,
          41.30223049882943
        ]
      }
    },
    {
      "type": "Feature",
      "properties": {
        "norad_id": 33853,
        "name": "IRIDIUM 33 DEB",
        "group": "iridium-33-debris",
        "lat": 84.03216979972386,
        "lon": 126.86128157148838,
        "alt_km": 994.159718366248,
        "timestamp": "2025-12-14T20:40:32.157341+00:00",
        "meta_object_name": "IRIDIUM 33 DEB",
        "meta_object_id": "1997-051W",
        "meta_epoch": "2025-12-14T06:31:50.970144",
        "meta_mean_motion": 13.99074098,
        "meta_eccentricity": 0.02069852,
        "meta_inclination": 85.9997,
        "meta_ra_of_asc_node": 349.1396,
        "meta_arg_of_pericenter": 231.0684,
        "meta_mean_anomaly": 138.4193,
        "meta_ephemeris_type": 0,
        "meta_classification_type": "U",
        "meta_norad_cat_id": 33853,
        "meta_element_set_no": 999,
        "meta_rev_at_epoch": 85367,
        "meta_bstar": 0.0021165037,
        "meta_mean_motion_dot": 3.695e-05,
        "meta_mean_motion_ddot": 0,
        "tle_line1": "1 33853U 97051W   25348.27211771  .00003695  00000+0  21165-2 0  9993",
        "tle_line2": "2 33853  85.9997 349.1396 0206985 231.0684 138.4193 13.99074098853678"
      },
      "geometry": {
        "type": "Point",
        "coordinates": [
          126.86128157148838,
          84.03216979972386
        ]
      }
    }
  ]
}